[{"OBJECT_ID":"1997-050A","OBJECT_NAME":"AMC-3 (GE-3)","NORAD_CAT_ID":"24936","OBJECT_TYPE":"PAYLOAD","PERIOD":"1436.118","INCLINATION":"0.0598","APOGEE":"35794.614","PERIGEE":"35779.417","ECCENTRICITY":"0.0001802","MEAN_MOTION":"1.0027029","TLE_LINE1":"1 24936U 97050A   16238.88624978 -.00000300 +00000-0 +00000-0 0  9991","TLE_LINE2":"2 24936 000.0598 285.1641 0001802 275.0087 026.4477 01.00270290016520","LAUNCH_DATE":"1997-09-04","LAUNCH_SITE":"AIR FORCE EASTERN TEST RANGE","OWNER":"SOCIÉTÉ EUROPÉENNE DES SATELLITES","ORBIT_TYPE":"Geosynchronous","OPERATIONAL_STATUS":"Operational","satInfo":{"lng":-82.33207908532303,"lat":1.4050304986772553,"elevation":-7.196315346436111,"azimuth":37.33207908532303,"range":42500.12335189901,"height":35799.87102693443,"velocity":3.074238426598978},"x":-302,"y":-38,"dx":0.4101997132799383,"dy":-3.0467487751376576},{"OBJECT_ID":"1997-059A","OBJECT_NAME":"ECHOSTAR 3","NORAD_CAT_ID":"25004","OBJECT_TYPE":"PAYLOAD","PERIOD":"1436.109","INCLINATION":"1.5438","APOGEE":"35790.520","PERIGEE":"35783.183","ECCENTRICITY":"8.7e-05","MEAN_MOTION":"1.00270876","TLE_LINE1":"1 25004U 97059A   16238.47130068 -.00000309  00000-0  00000+0 0  9992","TLE_LINE2":"2 25004   1.5438  81.5206 0000870  93.0967 267.4088  1.00270876 69220","LAUNCH_DATE":"1997-10-05","LAUNCH_SITE":"AIR FORCE EASTERN TEST RANGE","OWNER":"UNITED STATES OF AMERICA","ORBIT_TYPE":"Geosynchronous","OPERATIONAL_STATUS":"Operational","satInfo":{"lng":-73.0118784143365,"lat":-3.650857109816784,"elevation":-12.120853990956592,"azimuth":28.011878414336465,"range":43054.136006776505,"height":35801.70119209912,"velocity":3.074063862794318},"x":-291,"y":-84,"dx":0.8981598129177213,"dy":-2.9399281594959983},{"OBJECT_ID":"1997-076A","OBJECT_NAME":"ASTRA 1G","NORAD_CAT_ID":"25071","OBJECT_TYPE":"PAYLOAD","PERIOD":"1436.084","INCLINATION":"1.7199","APOGEE":"35800.439","PERIGEE":"35772.282","ECCENTRICITY":"0.0003339","MEAN_MOTION":"1.00272627","TLE_LINE1":"1 25071U 97076A   16238.78988852 -.00000003 +00000-0 +00000-0 0  9993","TLE_LINE2":"2 25071 001.7199 079.3721 0003339 079.5780 162.6594 01.00272627068630","LAUNCH_DATE":"1997-12-02","LAUNCH_SITE":"TYURATAM MISSILE AND SPACE COMPLEX","OWNER":"SOCIÉTÉ EUROPÉENNE DES SATELLITES","ORBIT_TYPE":"Geosynchronous","OPERATIONAL_STATUS":"Operational","satInfo":{"lng":87.46722821866933,"lat":3.2721199575165127,"elevation":-5.3656650389698015,"azimuth":227.53277178133067,"range":42275.13654546246,"height":35780.41882329322,"velocity":3.0751682866664996},"x":299,"y":-13,"dx":0.13589418144429335,"dy":3.072164182261254},{"OBJECT_ID":"1998-006B","OBJECT_NAME":"INMARSAT 3-F5","NORAD_CAT_ID":"25153","OBJECT_TYPE":"PAYLOAD","PERIOD":"1436.085","INCLINATION":"1.9878","APOGEE":"35807.798","PERIGEE":"35764.950","ECCENTRICITY":"0.0005081","MEAN_MOTION":"1.00272579","TLE_LINE1":"1 25153U 98006B   16239.21227043 -.00000315  00000-0  00000+0 0  9990","TLE_LINE2":"2 25153   1.9878  74.5194 0005081  86.0638 196.7390  1.00272579 67973","LAUNCH_DATE":"1998-02-04","LAUNCH_SITE":"FRENCH GUIANA","OWNER":"INTERNATIONAL MARITIME SATELLITE ORGANIZATION (INMARSAT)","ORBIT_TYPE":"Geosynchronous","OPERATIONAL_STATUS":"Operational","satInfo":{"lng":-57.923979512309735,"lat":-4.184597678940287,"elevation":-12.634985341723807,"azimuth":12.923979512309721,"range":43123.100650340595,"height":35813.03072432335,"velocity":3.0730545048855142},"x":-258,"y":-152,"dx":1.6319271389751087,"dy":-2.6039350612243903},{"OBJECT_ID":"1998-014A","OBJECT_NAME":"NSS 806 (INTELSAT 806)","NORAD_CAT_ID":"25239","OBJECT_TYPE":"PAYLOAD","PERIOD":"1436.090","INCLINATION":"0.0832","APOGEE":"35805.494","PERIGEE":"35767.444","ECCENTRICITY":"0.0004512","MEAN_MOTION":"1.0027224","TLE_LINE1":"1 25239U 98014A   16239.20744501 -.00000307  00000-0  00000+0 0  9997","TLE_LINE2":"2 25239   0.0832 312.5700 0004512 204.0497 205.4708  1.00272240 67739","LAUNCH_DATE":"1998-02-28","LAUNCH_SITE":"AIR FORCE EASTERN TEST RANGE","OWNER":"SOCIÉTÉ EUROPÉENNE DES SATELLITES","ORBIT_TYPE":"Geosynchronous","OPERATIONAL_STATUS":"Operational","satInfo":{"lng":-48.01936812870366,"lat":1.2385444752893875,"elevation":-7.358207706452033,"azimuth":3.019368128703649,"range":42524.68389723663,"height":35806.195090243506,"velocity":3.0733408092369787},"x":-227,"y":-192,"dx":2.055694225025124,"dy":-2.284632351806251},{"OBJECT_ID":"1998-033A","OBJECT_NAME":"CHINASAT 5A (CHINASTAR1)","NORAD_CAT_ID":"25354","OBJECT_TYPE":"PAYLOAD","PERIOD":"1436.086","INCLINATION":"0.625","APOGEE":"35807.100","PERIGEE":"35765.669","ECCENTRICITY":"0.0004913","MEAN_MOTION":"1.0027254","TLE_LINE1":"1 25354U 98033A   16239.08668492 -.00000111  00000-0  00000+0 0  9999","TLE_LINE2":"2 25354   0.6250  88.8744 0004913  59.5555  20.5675  1.00272540 71323","LAUNCH_DATE":"1998-05-30","LAUNCH_SITE":"Xichang Space Center, China","OWNER":"PEOPLES REPUBLIC OF CHINA","ORBIT_TYPE":"Geosynchronous","OPERATIONAL_STATUS":"Operational","satInfo":{"lng":9.44865978765945,"lat":-1.5831138686213242,"elevation":-10.117965719123605,"azimuth":305.5513402123405,"range":42810.28642342905,"height":35782.44636750808,"velocity":3.07437532200158},"x":47,"y":-282,"dx":3.0326655715152904,"dy":0.5047010519883568},{"OBJECT_ID":"1998-037A","OBJECT_NAME":"INTELSAT 805","NORAD_CAT_ID":"25371","OBJECT_TYPE":"PAYLOAD","PERIOD":"1436.103","INCLINATION":"0.0617","APOGEE":"35799.428","PERIGEE":"35774.011","ECCENTRICITY":"0.0003014","MEAN_MOTION":"1.00271346","TLE_LINE1":"1 25371U 98037A   16238.59820956 -.00000058  00000-0  00000+0 0  9992","TLE_LINE2":"2 25371   0.0617 284.9180 0003014 253.6117 180.0926  1.00271346 66630","LAUNCH_DATE":"1998-06-18","LAUNCH_SITE":"AIR FORCE EASTERN TEST RANGE","OWNER":"INTERNATIONAL TELECOMMUNICATIONS SATELLITE ORGANIZATION (INTELSAT)","ORBIT_TYPE":"Geosynchronous","OPERATIONAL_STATUS":"Operational","satInfo":{"lng":83.30013009905969,"lat":-0.9435823545466481,"elevation":-9.501717299292535,"azimuth":231.6998699009403,"range":42708.39386017543,"height":35750.03262264403,"velocity":3.076051092707514},"x":297,"y":-34,"dx":0.3588782113843611,"dy":3.0550444766550706},{"OBJECT_ID":"1998-050A","OBJECT_NAME":"ASTRA 2A","NORAD_CAT_ID":"25462","OBJECT_TYPE":"PAYLOAD","PERIOD":"1436.109","INCLINATION":"0.0274","APOGEE":"35795.701","PERIGEE":"35777.992","ECCENTRICITY":"0.00021","MEAN_MOTION":"1.00270893","TLE_LINE1":"1 25462U 98050A   16238.91140025 -.00000387 +00000-0 +00000-0 0  9992","TLE_LINE2":"2 25462 000.0274 167.3742 0002100 357.0833 251.7247 01.00270893010410","LAUNCH_DATE":"1998-08-30","LAUNCH_SITE":"TYURATAM MISSILE AND SPACE COMPLEX","OWNER":"SOCIÉTÉ EUROPÉENNE DES SATELLITES","ORBIT_TYPE":"Geosynchronous","OPERATIONAL_STATUS":"Operational","satInfo":{"lng":54.025324394056305,"lat":-0.6204400225910754,"elevation":-9.17535619019134,"azimuth":260.9746756059437,"range":42729.250890188705,"height":35806.8614152642,"velocity":3.073889715057651},"x":242,"y":-168,"dx":1.8056877015866117,"dy":2.487627364513437},{"OBJECT_ID":"1998-065A","OBJECT_NAME":"INTELSAT 8 (PAS 8)","NORAD_CAT_ID":"25522","OBJECT_TYPE":"PAYLOAD","PERIOD":"1436.075","INCLINATION":"0.3997","APOGEE":"35797.699","PERIGEE":"35774.661","ECCENTRICITY":"0.0002732","MEAN_MOTION":"1.00273271","TLE_LINE1":"1 25522U 98065A   16238.59820956 -.00000058  00000-0  00000+0 0  9991","TLE_LINE2":"2 25522   0.3997  89.5366 0002732  65.5860 203.4091  1.00273271 65202","LAUNCH_DATE":"1998-11-04","LAUNCH_SITE":"TYURATAM MISSILE AND SPACE COMPLEX","OWNER":"UNITED STATES OF AMERICA","ORBIT_TYPE":"Geosynchronous","OPERATIONAL_STATUS":"Operational","satInfo":{"lng":90.24390794907461,"lat":2.0125423349964,"elevation":-6.611434366599563,"azimuth":224.7560920509254,"range":42379.04502627017,"height":35745.03604665649,"velocity":3.0764516852858086},"x":299,"y":1,"dx":-0.01309640537210274,"dy":3.0764238095659415},{"OBJECT_ID":"1999-006A","OBJECT_NAME":"JCSAT 6","NORAD_CAT_ID":"25630","OBJECT_TYPE":"PAYLOAD","PERIOD":"1436.067","INCLINATION":"1.6878","APOGEE":"35792.010","PERIGEE":"35780.043","ECCENTRICITY":"0.0001419","MEAN_MOTION":"1.00273818","TLE_LINE1":"1 25630U 99006A   16238.86970137 -.00000184  00000-0  00000+0 0  9994","TLE_LINE2":"2 25630   1.6878  81.4976 0001419  94.8435 193.2278  1.00273818 64070","LAUNCH_DATE":"1999-02-16","LAUNCH_SITE":"AIR FORCE EASTERN TEST RANGE","OWNER":"JAPAN","ORBIT_TYPE":"Geosynchronous","OPERATIONAL_STATUS":"Operational","satInfo":{"lng":68.50619239541187,"lat":2.226777616391355,"elevation":-6.3926678307363405,"azimuth":246.49380760458814,"range":42396.35146602443,"height":35786.40906139894,"velocity":3.0746785046866085},"x":279,"y":-105,"dx":1.1265642555545814,"dy":2.8608566698261257},{"OBJECT_ID":"1999-013A","OBJECT_NAME":"ASIASAT 3S","NORAD_CAT_ID":"25657","OBJECT_TYPE":"PAYLOAD","PERIOD":"1436.139","INCLINATION":"1.9067","APOGEE":"35799.899","PERIGEE":"35774.963","ECCENTRICITY":"0.0002957","MEAN_MOTION":"1.00268808","TLE_LINE1":"1 25657U 99013A   16239.53967400 -.00000229  00000-0  00000+0 0  9995","TLE_LINE2":"2 25657   1.9067  79.6511 0002957  90.3650 149.7938  1.00268808 63907","LAUNCH_DATE":"1999-03-21","LAUNCH_SITE":"TYURATAM MISSILE AND SPACE COMPLEX","OWNER":"ASIASAT CORP","ORBIT_TYPE":"Geosynchronous","OPERATIONAL_STATUS":"Operational","satInfo":{"lng":-137.49776465180162,"lat":-0.720298597027118,"elevation":-9.27236610802749,"azimuth":92.4977646518016,"range":42742.005922536475,"height":35808.712648922854,"velocity":3.074108257136576},"x":-206,"y":210,"dx":-2.2663893210407955,"dy":-2.0769258585870416}]